{"type": "FeatureCollection", "features": [ {"type": "Feature", "properties": {"norad_id": 28649, "name": "IRS-P5 (CARTOSAT-1)", "group": "resource", "lat": -65.9453596875578, "lon": 28.573837307548377, "alt_km": 604.3262940014765, "timestamp": "2025-12-10T18:56:59.718381+00:00", "meta": {"OBJECT_NAME": "IRS-P5 (CARTOSAT-1)", "OBJECT_ID": "2005-017A", "EPOCH": "2025-12-10T11:11:38.274144", "MEAN_MOTION": 14.90392047, "ECCENTRICITY": 0.0001358, "INCLINATION": 97.5497, "RA_OF_ASC_NODE": 10.9804, "ARG_OF_PERICENTER": 46.7941, "MEAN_ANOMALY": 313.3391, "EPHEMERIS_TYPE": 0, "CLASSIFICATION_TYPE": "U", "NORAD_CAT_ID": 28649, "ELEMENT_SET_NO": 999, "REV_AT_EPOCH": 11570, "BSTAR": 0.000235, "MEAN_MOTION_DOT": 2.236e-05, "MEAN_MOTION_DDOT": 0}, "tle": {"line1": "1 28649U 05017A   25344.46641521  .00002236  00000+0  23500-3 0  9994", "line2": "2 28649  97.5497  10.9804 0001358  46.7941 313.3391 14.90392047115708"}}, "geometry": {"type": "Point", "coordinates": [28.573837307548377, -65.9453596875578]}}, {"type": "Feature", "properties": {"norad_id": 28893, "name": "SINAH 1", "group": "resource", "lat": 67.0005745525837, "lon": -46.644628893029, "alt_km": 664.6822622509144, "timestamp": "2025-12-10T18:56:59.718392+00:00", "meta": {"OBJECT_NAME": "SINAH 1", "OBJECT_ID": "2005-043D", "EPOCH": "2025-12-10T11:52:51.666816", "MEAN_MOTION": 14.63958727, "ECCENTRICITY": 0.001523, "INCLINATION": 98.2602, "RA_OF_ASC_NODE": 113.0463, "ARG_OF_PERICENTER": 143.6458, "MEAN_ANOMALY": 216.5782, "EPHEMERIS_TYPE": 0, "CLASSIFICATION_TYPE": "U", "NORAD_CAT_ID": 28893, "ELEMENT_SET_NO": 999, "REV_AT_EPOCH": 7291, "BSTAR": 0.00016979, "MEAN_MOTION_DOT": 8.41e-06, "MEAN_MOTION_DDOT": 0}, "tle": {"line1": "1 28893U 05043D   25344.49504244  .00000841  00000+0  16979-3 0  9999", "line2": "2 28893  98.2602 113.0463 0015230 143.6458 216.5782 14.63958727 72911"}}, "geometry": {"type": "Point", "coordinates": [-46.644628893029, 67.0005745525837]}}, {"type": "Feature", "properties": {"norad_id": 29079, "name": "EROS B", "group": "resource", "lat": 66.30134722583448, "lon": -61.63276343958274, "alt_km": 361.0884653100784, "timestamp": "2025-12-10T18:56:59.718403+00:00", "meta": {"OBJECT_NAME": "EROS B", "OBJECT_ID": "2006-014A", "EPOCH": "2025-12-10T13:52:28.760160", "MEAN_MOTION": 15.67349653, "ECCENTRICITY": 0.0001825, "INCLINATION": 97.3475, "RA_OF_ASC_NODE": 101.0497, "ARG_OF_PERICENTER": 292.0307, "MEAN_ANOMALY": 68.076, "EPHEMERIS_TYPE": 0, "CLASSIFICATION_TYPE": "U", "NORAD_CAT_ID": 29079, "ELEMENT_SET_NO": 999, "REV_AT_EPOCH": 9046, "BSTAR": 0.0017509, "MEAN_MOTION_DOT": 0.00192527, "MEAN_MOTION_DDOT": 0}, "tle": {"line1": "1 29079U 06014A   25344.57811065  .00192527  00000+0  17509-2 0  9998", "line2": "2 29079  97.3475 101.0497 0001825 292.0307  68.0760 15.67349653 90460"}}, "geometry": {"type": "Point", "coordinates": [-61.63276343958274, 66.30134722583448]}}, {"type": "Feature", "properties": {"norad_id": 29228, "name": "RESURS-DK 1", "group": "resource", "lat": 49.09331894149852, "lon": 131.83212647682205, "alt_km": 529.2015895343366, "timestamp": "2025-12-10T18:56:59.718414+00:00", "meta": {"OBJECT_NAME": "RESURS-DK 1", "OBJECT_ID": "2006-021A", "EPOCH": "2025-12-10T12:21:47.683008", "MEAN_MOTION": 15.12141279, "ECCENTRICITY": 0.0007457, "INCLINATION": 69.9336, "RA_OF_ASC_NODE": 107.5872, "ARG_OF_PERICENTER": 261.4245, "MEAN_ANOMALY": 98.6075, "EPHEMERIS_TYPE": 0, "CLASSIFICATION_TYPE": "U", "NORAD_CAT_ID": 29228, "ELEMENT_SET_NO": 999, "REV_AT_EPOCH": 7404, "BSTAR": 0.00024714, "MEAN_MOTION_DOT": 4.166e-05, "MEAN_MOTION_DDOT": 0}, "tle": {"line1": "1 29228U 06021A   25344.51513522  .00004166  00000+0  24714-3 0  9991", "line2": "2 29228  69.9336 107.5872 0007457 261.4245  98.6075 15.12141279 74041"}}, "geometry": {"type": "Point", "coordinates": [131.83212647682205, 49.09331894149852]}}, {"type": "Feature", "properties": {"norad_id": 29268, "name": "ARIRANG-2 (KOMPSAT-2)", "group": "resource", "lat": 13.296182905106535, "lon": 171.49470253866622, "alt_km": 674.6739543805734, "timestamp": "2025-12-10T18:56:59.718424+00:00", "meta": {"OBJECT_NAME": "ARIRANG-2 (KOMPSAT-2)", "OBJECT_ID": "2006-031A", "EPOCH": "2025-12-10T12:40:46.657056", "MEAN_MOTION": 14.64490401, "ECCENTRICITY": 0.0013625, "INCLINATION": 97.8261, "RA_OF_ASC_NODE": 173.1089, "ARG_OF_PERICENTER": 316.7078, "MEAN_ANOMALY": 120.1089, "EPHEMERIS_TYPE": 0, "CLASSIFICATION_TYPE": "U", "NORAD_CAT_ID": 29268, "ELEMENT_SET_NO": 999, "REV_AT_EPOCH": 3386, "BSTAR": 0.00011556, "MEAN_MOTION_DOT": 5.68e-06, "MEAN_MOTION_DDOT": 0}, "tle": {"line1": "1 29268U 06031A   25344.52831779  .00000568  00000+0  11556-3 0  9996", "line2": "2 29268  97.8261 173.1089 0013625 316.7078 120.1089 14.64490401 33864"}}, "geometry": {"type": "Point", "coordinates": [171.49470253866622, 13.296182905106535]}}, {"type": "Feature", "properties": {"norad_id": 29709, "name": "LAPAN-TUBSAT", "group": "resource", "lat": 20.036242100774157, "lon": 157.89262296550135, "alt_km": 609.9118728166095, "timestamp": "2025-12-10T18:56:59.718435+00:00", "meta": {"OBJECT_NAME": "LAPAN-TUBSAT", "OBJECT_ID": "2007-001A", "EPOCH": "2025-12-10T11:46:09.773760", "MEAN_MOTION": 14.8566685, "ECCENTRICITY": 0.0013715, "INCLINATION": 98.1258, "RA_OF_ASC_NODE": 334.6005, "ARG_OF_PERICENTER": 80.5622, "MEAN_ANOMALY": 279.7142, "EPHEMERIS_TYPE": 0, "CLASSIFICATION_TYPE": "U", "NORAD_CAT_ID": 29709, "ELEMENT_SET_NO": 999, "REV_AT_EPOCH": 2313, "BSTAR": 0.00016015, "MEAN_MOTION_DOT": 1.333e-05, "MEAN_MOTION_DDOT": 0}, "tle": {"line1": "1 29709U 07001A   25344.49039090  .00001333  00000+0  16015-3 0  9992", "line2": "2 29709  98.1258 334.6005 0013715  80.5622 279.7142 14.85666850 23133"}}, "geometry": {"type": "Point", "coordinates": [157.89262296550135, 20.036242100774157]}}, {"type": "Feature", "properties": {"norad_id": 31113, "name": "HAIYANG-1B", "group": "resource", "lat": 66.74854014848314, "lon": -50.79236568896701, "alt_km": 772.6516831673725, "timestamp": "2025-12-10T18:56:59.718445+00:00", "meta": {"OBJECT_NAME": "HAIYANG-1B", "OBJECT_ID": "2007-010A", "EPOCH": "2025-12-10T11:55:13.880352", "MEAN_MOTION": 14.3096387, "ECCENTRICITY": 0.0014358, "INCLINATION": 98.3312, "RA_OF_ASC_NODE": 328.8674, "ARG_OF_PERICENTER": 44.2073, "MEAN_ANOMALY": 316.0255, "EPHEMERIS_TYPE": 0, "CLASSIFICATION_TYPE": "U", "NORAD_CAT_ID": 31113, "ELEMENT_SET_NO": 999, "REV_AT_EPOCH": 97364, "BSTAR": 9.824e-05, "MEAN_MOTION_DOT": 2.17e-06, "MEAN_MOTION_DDOT": 0}, "tle": {"line1": "1 31113U 07010A   25344.49668843  .00000217  00000+0  98240-4 0  9999", "line2": "2 31113  98.3312 328.8674 0014358  44.2073 316.0255 14.30963870973648"}}, "geometry": {"type": "Point", "coordinates": [-50.79236568896701, 66.74854014848314]}}, {"type": "Feature", "properties": {"norad_id": 31598, "name": "COSMO-SKYMED 1", "group": "resource", "lat": 44.25660691854938, "lon": 162.4167253714923, "alt_km": 575.7936849831176, "timestamp": "2025-12-10T18:56:59.718455+00:00", "meta": {"OBJECT_NAME": "COSMO-SKYMED 1", "OBJECT_ID": "2007-023A", "EPOCH": "2025-12-10T12:19:41.361024", "MEAN_MOTION": 14.95736577, "ECCENTRICITY": 0.0001062, "INCLINATION": 97.8835, "RA_OF_ASC_NODE": 169.8985, "ARG_OF_PERICENTER": 85.6031, "MEAN_ANOMALY": 274.5311, "EPHEMERIS_TYPE": 0, "CLASSIFICATION_TYPE": "U", "NORAD_CAT_ID": 31598, "ELEMENT_SET_NO": 999, "REV_AT_EPOCH": 157, "BSTAR": 0.00050786, "MEAN_MOTION_DOT": 5.601e-05, "MEAN_MOTION_DDOT": 0}, "tle": {"line1": "1 31598U 07023A   25344.51367316  .00005601  00000+0  50786-3 0  9998", "line2": "2 31598  97.8835 169.8985 0001062  85.6031 274.5311 14.95736577  1576"}}, "geometry": {"type": "Point", "coordinates": [162.4167253714923, 44.25660691854938]}}, {"type": "Feature", "properties": {"norad_id": 31698, "name": "TERRASAR-X", "group": "resource", "lat": -74.8947911461746, "lon": 141.22074940186755, "alt_km": 517.0816321658913, "timestamp": "2025-12-10T18:56:59.718466+00:00", "meta": {"OBJECT_NAME": "TERRASAR-X", "OBJECT_ID": "2007-026A", "EPOCH": "2025-12-09T11:47:13.204320", "MEAN_MOTION": 15.19146544, "ECCENTRICITY": 0.0001961, "INCLINATION": 97.4451, "RA_OF_ASC_NODE": 348.9193, "ARG_OF_PERICENTER": 86.8081, "MEAN_ANOMALY": 273.3378, "EPHEMERIS_TYPE": 0, "CLASSIFICATION_TYPE": "U", "NORAD_CAT_ID": 31698, "ELEMENT_SET_NO": 999, "REV_AT_EPOCH": 2442, "BSTAR": 0.00012751, "MEAN_MOTION_DOT": 2.611e-05, "MEAN_MOTION_DDOT": 0}, "tle": {"line1": "1 31698U 07026A   25343.49112505  .00002611  00000+0  12751-3 0  9994", "line2": "2 31698  97.4451 348.9193 0001961  86.8081 273.3378 15.19146544 24429"}}, "geometry": {"type": "Point", "coordinates": [141.22074940186755, -74.8947911461746]}}, {"type": "Feature", "properties": {"norad_id": 32060, "name": "WORLDVIEW-1 (WV-1)", "group": "resource", "lat": -39.179100285920995, "lon": -83.76862896895368, "alt_km": 498.6486384567643, "timestamp": "2025-12-10T18:56:59.718485+00:00", "meta": {"OBJECT_NAME": "WORLDVIEW-1 (WV-1)", "OBJECT_ID": "2007-041A", "EPOCH": "2025-12-10T06:57:50.790816", "MEAN_MOTION": 15.24623427, "ECCENTRICITY": 7.25e-05, "INCLINATION": 97.3835, "RA_OF_ASC_NODE": 101.8056, "ARG_OF_PERICENTER": 104.6633, "MEAN_ANOMALY": 255.4685, "EPHEMERIS_TYPE": 0, "CLASSIFICATION_TYPE": "U", "NORAD_CAT_ID": 32060, "ELEMENT_SET_NO": 999, "REV_AT_EPOCH": 1410, "BSTAR": 0.00052474, "MEAN_MOTION_DOT": 0.00012888, "MEAN_MOTION_DDOT": 0}, "tle": {"line1": "1 32060U 07041A   25344.29017119  .00012888  00000+0  52474-3 0  9992", "line2": "2 32060  97.3835 101.8056 0000725 104.6633 255.4685 15.24623427 14103"}}, "geometry": {"type": "Point", "coordinates": [-83.76862896895368, -39.179100285920995]}}]}